[{"OBJECT_NAME":"STARLINK-1971","OBJECT_ID":"2021-009AA","EPOCH":"2026-03-20T06:00:02.999808","MEAN_MOTION":15.96592894,"ECCENTRICITY":0.00052826,"INCLINATION":53.0341,"RA_OF_ASC_NODE":268.0269,"ARG_OF_PERICENTER":301.5262,"MEAN_ANOMALY":144.0931,"EPHEMERIS_TYPE":0,"CLASSIFICATION_TYPE":"U","NORAD_CAT_ID":47572,"ELEMENT_SET_NO":999,"REV_AT_EPOCH":599,"BSTAR":0.00072801086,"MEAN_MOTION_DOT":0.00313296,"MEAN_MOTION_DDOT":5.0492651e-5},{"OBJECT_NAME":"STARLINK-1975","OBJECT_ID":"2021-009AB","EPOCH":"2026-03-20T00:00:01.999296","MEAN_MOTION":15.80957315,"ECCENTRICITY":0.0001805,"INCLINATION":53.0488,"RA_OF_ASC_NODE":257.3858,"ARG_OF_PERICENTER":194.0823,"MEAN_ANOMALY":278.737,"EPHEMERIS_TYPE":0,"CLASSIFICATION_TYPE":"U","NORAD_CAT_ID":47573,"ELEMENT_SET_NO":999,"REV_AT_EPOCH":598,"BSTAR":0.00079859,"MEAN_MOTION_DOT":0.00160528,"MEAN_MOTION_DDOT":0},{"OBJECT_NAME":"STARLINK-1991","OBJECT_ID":"2021-009AR","EPOCH":"2026-03-20T06:20:55.225248","MEAN_MOTION":15.68666791,"ECCENTRICITY":0.000276,"INCLINATION":53.0433,"RA_OF_ASC_NODE":280.6414,"ARG_OF_PERICENTER":108.1954,"MEAN_ANOMALY":251.9363,"EPHEMERIS_TYPE":0,"CLASSIFICATION_TYPE":"U","NORAD_CAT_ID":47587,"ELEMENT_SET_NO":999,"REV_AT_EPOCH":28314,"BSTAR":0.00060078612,"MEAN_MOTION_DOT":0.0006974,"MEAN_MOTION_DDOT":0},{"OBJECT_NAME":"STARLINK-1993","OBJECT_ID":"2021-009AS","EPOCH":"2026-03-19T23:59:39.704640","MEAN_MOTION":15.7083676,"ECCENTRICITY":0.00028629,"INCLINATION":53.0435,"RA_OF_ASC_NODE":288.3484,"ARG_OF_PERICENTER":315.0439,"MEAN_ANOMALY":45.0345,"EPHEMERIS_TYPE":0,"CLASSIFICATION_TYPE":"U","NORAD_CAT_ID":47588,"ELEMENT_SET_NO":999,"REV_AT_EPOCH":28301,"BSTAR":0.00081124999,"MEAN_MOTION_DOT":0.00103728,"MEAN_MOTION_DDOT":0},{"OBJECT_NAME":"STARLINK-1994","OBJECT_ID":"2021-009AT","EPOCH":"2026-03-20T05:35:27.193632","MEAN_MOTION":15.58996154,"ECCENTRICITY":0.00083167,"INCLINATION":53.048,"RA_OF_ASC_NODE":310.9549,"ARG_OF_PERICENTER":138.7011,"MEAN_ANOMALY":221.4631,"EPHEMERIS_TYPE":0,"CLASSIFICATION_TYPE":"U","NORAD_CAT_ID":47589,"ELEMENT_SET_NO":999,"REV_AT_EPOCH":28271,"BSTAR":0.00062356832,"MEAN_MOTION_DOT":0.00049269,"MEAN_MOTION_DDOT":0},{"OBJECT_NAME":"STARLINK-1995","OBJECT_ID":"2021-009AU","EPOCH":"2026-03-19T23:29:26.131488","MEAN_MOTION":15.57901304,"ECCENTRICITY":0.00064766,"INCLINATION":53.0471,"RA_OF_ASC_NODE":329.4842,"ARG_OF_PERICENTER":121.1959,"MEAN_ANOMALY":238.9688,"EPHEMERIS_TYPE":0,"CLASSIFICATION_TYPE":"U","NORAD_CAT_ID":47590,"ELEMENT_SET_NO":999,"REV_AT_EPOCH":28243,"BSTAR":0.00087629565,"MEAN_MOTION_DOT":0.00066727,"MEAN_MOTION_DDOT":0},{"OBJECT_NAME":"STARLINK-1997","OBJECT_ID":"2021-009AW","EPOCH":"2026-03-19T21:51:00.127296","MEAN_MOTION":15.6726426,"ECCENTRICITY":0.0006465,"INCLINATION":53.0411,"RA_OF_ASC_NODE":310.1431,"ARG_OF_PERICENTER":120.8833,"MEAN_ANOMALY":239.2819,"EPHEMERIS_TYPE":0,"CLASSIFICATION_TYPE":"U","NORAD_CAT_ID":47592,"ELEMENT_SET_NO":999,"REV_AT_EPOCH":28269,"BSTAR":0.00066869,"MEAN_MOTION_DOT":0.00073435,"MEAN_MOTION_DDOT":0},{"OBJECT_NAME":"STARLINK-2001","OBJECT_ID":"2021-009BA","EPOCH":"2026-03-19T23:29:10.239072","MEAN_MOTION":15.53055417,"ECCENTRICITY":0.00054783,"INCLINATION":53.049,"RA_OF_ASC_NODE":332.0438,"ARG_OF_PERICENTER":154.6314,"MEAN_ANOMALY":205.4965,"EPHEMERIS_TYPE":0,"CLASSIFICATION_TYPE":"U","NORAD_CAT_ID":47596,"ELEMENT_SET_NO":999,"REV_AT_EPOCH":28239,"BSTAR":0.0014146305,"MEAN_MOTION_DOT":0.00090553,"MEAN_MOTION_DDOT":0},{"OBJECT_NAME":"STARLINK-2021","OBJECT_ID":"2021-009BJ","EPOCH":"2026-03-19T23:23:59.860032","MEAN_MOTION":15.67014802,"ECCENTRICITY":0.00055186,"INCLINATION":53.0429,"RA_OF_ASC_NODE":285.4087,"ARG_OF_PERICENTER":165.666,"MEAN_ANOMALY":194.4513,"EPHEMERIS_TYPE":0,"CLASSIFICATION_TYPE":"U","NORAD_CAT_ID":47604,"ELEMENT_SET_NO":999,"REV_AT_EPOCH":28305,"BSTAR":0.0007486586,"MEAN_MOTION_DOT":0.00081511,"MEAN_MOTION_DDOT":0},{"OBJECT_NAME":"STARLINK-1609","OBJECT_ID":"2021-012B","EPOCH":"2026-03-20T05:15:15.187392","MEAN_MOTION":15.30275063,"ECCENTRICITY":0.00017042,"INCLINATION":53.1624,"RA_OF_ASC_NODE":16.0401,"ARG_OF_PERICENTER":120.3503,"MEAN_ANOMALY":239.7667,"EPHEMERIS_TYPE":0,"CLASSIFICATION_TYPE":"U","NORAD_CAT_ID":47621,"ELEMENT_SET_NO":999,"REV_AT_EPOCH":28170,"BSTAR":0.00039021427,"MEAN_MOTION_DOT":0.00011242,"MEAN_MOTION_DDOT":0},{"OBJECT_NAME":"STARLINK-1645","OBJECT_ID":"2021-012C","EPOCH":"2026-03-20T06:00:02.999808","MEAN_MOTION":15.86753142,"ECCENTRICITY":0.00072929,"INCLINATION":53.0393,"RA_OF_ASC_NODE":330.3359,"ARG_OF_PERICENTER":129.9958,"MEAN_ANOMALY":54.6365,"EPHEMERIS_TYPE":0,"CLASSIFICATION_TYPE":"U","NORAD_CAT_ID":47622,"ELEMENT_SET_NO":999,"REV_AT_EPOCH":594,"BSTAR":0.00076124698,"MEAN_MOTION_DOT":0.0020292,"MEAN_MOTION_DDOT":0},{"OBJECT_NAME":"STARLINK-1655","OBJECT_ID":"2021-012D","EPOCH":"2026-03-20T05:47:09.388896","MEAN_MOTION":15.66506905,"ECCENTRICITY":0.00053087,"INCLINATION":53.0409,"RA_OF_ASC_NODE":274.2277,"ARG_OF_PERICENTER":314.6843,"MEAN_ANOMALY":45.3739,"EPHEMERIS_TYPE":0,"CLASSIFICATION_TYPE":"U","NORAD_CAT_ID":47623,"ELEMENT_SET_NO":999,"REV_AT_EPOCH":28312,"BSTAR":0.00061640897,"MEAN_MOTION_DOT":0.0006551,"MEAN_MOTION_DDOT":0},{"OBJECT_NAME":"STARLINK-1669","OBJECT_ID":"2021-012E","EPOCH":"2026-03-20T06:00:02.999808","MEAN_MOTION":15.80301816,"ECCENTRICITY":0.0006704,"INCLINATION":53.0326,"RA_OF_ASC_NODE":299.0846,"ARG_OF_PERICENTER":141.579,"MEAN_ANOMALY":29.531,"EPHEMERIS_TYPE":0,"CLASSIFICATION_TYPE":"U","NORAD_CAT_ID":47624,"ELEMENT_SET_NO":999,"REV_AT_EPOCH":592,"BSTAR":0.0001589228,"MEAN_MOTION_DOT":0.00030005,"MEAN_MOTION_DDOT":0},{"OBJECT_NAME":"STARLINK-1704","OBJECT_ID":"2021-012F","EPOCH":"2026-03-20T05:27:18.584352","MEAN_MOTION":15.44936427,"ECCENTRICITY":0.00015399,"INCLINATION":53.0531,"RA_OF_ASC_NODE":12.61,"ARG_OF_PERICENTER":171.8033,"MEAN_ANOMALY":188.2999,"EPHEMERIS_TYPE":0,"CLASSIFICATION_TYPE":"U","NORAD_CAT_ID":47625,"ELEMENT_SET_NO":999,"REV_AT_EPOCH":28173,"BSTAR":0.00070889451,"MEAN_MOTION_DOT":0.00033607,"MEAN_MOTION_DDOT":0},{"OBJECT_NAME":"STARLINK-1972","OBJECT_ID":"2021-012H","EPOCH":"2026-03-19T23:26:59.308512","MEAN_MOTION":15.48626097,"ECCENTRICITY":0.00032579,"INCLINATION":53.0518,"RA_OF_ASC_NODE":275.3757,"ARG_OF_PERICENTER":216.5241,"MEAN_ANOMALY":143.5545,"EPHEMERIS_TYPE":0,"CLASSIFICATION_TYPE":"U","NORAD_CAT_ID":47627,"ELEMENT_SET_NO":999,"REV_AT_EPOCH":28305,"BSTAR":0.0014759671,"MEAN_MOTION_DOT":0.00080546,"MEAN_MOTION_DDOT":0},{"OBJECT_NAME":"STARLINK-1973","OBJECT_ID":"2021-012J","EPOCH":"2026-03-20T01:15:42.555168","MEAN_MOTION":15.30202394,"ECCENTRICITY":0.00017034,"INCLINATION":53.1618,"RA_OF_ASC_NODE":16.8576,"ARG_OF_PERICENTER":97.7267,"MEAN_ANOMALY":262.3928,"EPHEMERIS_TYPE":0,"CLASSIFICATION_TYPE":"U","NORAD_CAT_ID":47628,"ELEMENT_SET_NO":999,"REV_AT_EPOCH":28167,"BSTAR":1.2197712e-5,"MEAN_MOTION_DOT":2.0e-8,"MEAN_MOTION_DDOT":0}]
