STARLINK-1971           
1 47572U 21009AA  26079.25003472  .00313296  50493-4  72801-3 0  9994
2 47572  53.0341 268.0269 0005282 301.5262 144.0931 15.96592894  5995
STARLINK-1975           
1 47573U 21009AB  26079.00002314  .00160528  00000+0  79859-3 0  9994
2 47573  53.0488 257.3858 0001805 194.0823 278.7370 15.80957315  5985
STARLINK-1991           
1 47587U 21009AR  26079.26452807  .00069740  00000+0  60079-3 0  9991
2 47587  53.0433 280.6414 0002760 108.1954 251.9363 15.68666791283141
STARLINK-1993           
1 47588U 21009AS  26078.99976510  .00103728  00000+0  81125-3 0  9993
2 47588  53.0435 288.3484 0002862 315.0439  45.0345 15.70836760283012
STARLINK-1994           
1 47589U 21009AT  26079.23295363  .00049269  00000+0  62357-3 0  9997
2 47589  53.0480 310.9549 0008316 138.7011 221.4631 15.58996154282717
STARLINK-1995           
1 47590U 21009AU  26078.97877467  .00066727  00000+0  87630-3 0  9999
2 47590  53.0471 329.4842 0006476 121.1959 238.9688 15.57901304282438
STARLINK-1997           
1 47592U 21009AW  26078.91041814  .00073435  00000+0  66869-3 0  9999
2 47592  53.0411 310.1431 0006465 120.8833 239.2819 15.67264260282692
STARLINK-2001           
1 47596U 21009BA  26078.97859073  .00090553  00000+0  14146-2 0  9993
2 47596  53.0490 332.0438 0005478 154.6314 205.4965 15.53055417282396
STARLINK-2021           
1 47604U 21009BJ  26078.97499838  .00081511  00000+0  74866-3 0  9992
2 47604  53.0429 285.4087 0005518 165.6660 194.4513 15.67014802283058
STARLINK-1609           
1 47621U 21012B   26079.21892578  .00011242  00000+0  39021-3 0  9999
2 47621  53.1624  16.0401 0001704 120.3503 239.7667 15.30275063281701
STARLINK-1645           
1 47622U 21012C   26079.25003472  .00202920  00000+0  76125-3 0  9992
2 47622  53.0393 330.3359 0007292 129.9958  54.6365 15.86753142  5944
STARLINK-1655           
1 47623U 21012D   26079.24108089  .00065510  00000+0  61641-3 0  9991
2 47623  53.0409 274.2277 0005308 314.6843  45.3739 15.66506905283121
STARLINK-1669           
1 47624U 21012E   26079.25003472  .00030005  00000+0  15892-3 0  9991
2 47624  53.0326 299.0846 0006704 141.5790  29.5310 15.80301816  5925
STARLINK-1704           
1 47625U 21012F   26079.22729843  .00033607  00000+0  70889-3 0  9994
2 47625  53.0531  12.6100 0001539 171.8033 188.2999 15.44936427281736
STARLINK-1972           
1 47627U 21012H   26078.97707533  .00080546  00000+0  14760-2 0  9998
2 47627  53.0518 275.3757 0003257 216.5241 143.5545 15.48626097283057
STARLINK-1973           
1 47628U 21012J   26079.05257587  .00000002  00000+0  12198-4 0  9992
2 47628  53.1618  16.8576 0001703  97.7267 262.3928 15.30202394281670
